[
  {
    "OBJECT_NAME": "STARLINK-30988",
    "OBJECT_ID": "23191X",
    "EPOCH": "2025-11-11T06:58:20.343072",
    "MEAN_MOTION": 15.02536775,
    "ECCENTRICITY": 6.89e-05,
    "INCLINATION": 43.0037,
    "RA_OF_ASC_NODE": 29.1011,
    "ARG_OF_PERICENTER": 251.9423,
    "MEAN_ANOMALY": 108.1344,
    "EPHEMERIS_TYPE": 0,
    "CLASSIFICATION_TYPE": "U",
    "NORAD_CAT_ID": 58529,
    "ELEMENT_SET_NO": 999,
    "REV_AT_EPOCH": 10763,
    "BSTAR": 9.1661e-05,
    "MEAN_MOTION_DOT": 1.035e-05,
    "MEAN_MOTION_DDOT": 0.0,
    "TLE_LINE1": "1 58529U 23191X   25315.29051323  .00001035  00000+0  91661-4 0  9991",
    "TLE_LINE2": "2 58529  43.0037  29.1011 0000689 251.9423 108.1344 15.02536775107630",
    "COMMENT": "Grouped by shell and plane from TLE"
  },
  {
    "OBJECT_NAME": "STARLINK-31009",
    "OBJECT_ID": "23191Y",
    "EPOCH": "2025-11-11T05:17:49.141824",
    "MEAN_MOTION": 15.02540865,
    "ECCENTRICITY": 0.000133,
    "INCLINATION": 43.0032,
    "RA_OF_ASC_NODE": 29.4366,
    "ARG_OF_PERICENTER": 271.5424,
    "MEAN_ANOMALY": 88.5266,
    "EPHEMERIS_TYPE": 0,
    "CLASSIFICATION_TYPE": "U",
    "NORAD_CAT_ID": 58530,
    "ELEMENT_SET_NO": 999,
    "REV_AT_EPOCH": 10764,
    "BSTAR": 8.6313e-05,
    "MEAN_MOTION_DOT": 9.63e-06,
    "MEAN_MOTION_DDOT": 0.0,
    "TLE_LINE1": "1 58530U 23191Y   25315.22070766  .00000963  00000+0  86313-4 0  9995",
    "TLE_LINE2": "2 58530  43.0032  29.4366 0001330 271.5424  88.5266 15.02540865107646",
    "COMMENT": "Grouped by shell and plane from TLE"
  },
  {
    "OBJECT_NAME": "STARLINK-35112",
    "OBJECT_ID": "25200A",
    "EPOCH": "2025-11-11T08:00:03.000384",
    "MEAN_MOTION": 15.06497082,
    "ECCENTRICITY": 0.0001204,
    "INCLINATION": 97.6033,
    "RA_OF_ASC_NODE": 23.0645,
    "ARG_OF_PERICENTER": 86.3607,
    "MEAN_ANOMALY": 52.7167,
    "EPHEMERIS_TYPE": 0,
    "CLASSIFICATION_TYPE": "U",
    "NORAD_CAT_ID": 65520,
    "ELEMENT_SET_NO": 999,
    "REV_AT_EPOCH": 591,
    "BSTAR": 0.0,
    "MEAN_MOTION_DOT": -0.0005552,
    "MEAN_MOTION_DDOT": 0.0,
    "TLE_LINE1": "1 65520U 25200A   25315.33336806 -.00055520  00000+0 -37864-2 0  9993",
    "TLE_LINE2": "2 65520  97.6033  23.0645 0001204  86.3607  52.7167 15.06497082  5910",
    "COMMENT": "Grouped by shell and plane from TLE"
  },
  {
    "OBJECT_NAME": "STARLINK-35187",
    "OBJECT_ID": "25200B",
    "EPOCH": "2025-11-11T08:00:03.000384",
    "MEAN_MOTION": 15.06464661,
    "ECCENTRICITY": 0.0001491,
    "INCLINATION": 97.6031,
    "RA_OF_ASC_NODE": 23.1586,
    "ARG_OF_PERICENTER": 80.6742,
    "MEAN_ANOMALY": 272.3607,
    "EPHEMERIS_TYPE": 0,
    "CLASSIFICATION_TYPE": "U",
    "NORAD_CAT_ID": 65521,
    "ELEMENT_SET_NO": 999,
    "REV_AT_EPOCH": 585,
    "BSTAR": 0.0,
    "MEAN_MOTION_DOT": -0.00048651,
    "MEAN_MOTION_DDOT": 0.0,
    "TLE_LINE1": "1 65521U 25200B   25315.33336806 -.00048651  00000+0 -33171-2 0  9998",
    "TLE_LINE2": "2 65521  97.6031  23.1586 0001491  80.6742 272.3607 15.06464661  5858",
    "COMMENT": "Grouped by shell and plane from TLE"
  },
  {
    "OBJECT_NAME": "STARLINK-35188",
    "OBJECT_ID": "25200C",
    "EPOCH": "2025-11-11T08:00:03.000384",
    "MEAN_MOTION": 15.06492903,
    "ECCENTRICITY": 0.000148,
    "INCLINATION": 97.6032,
    "RA_OF_ASC_NODE": 23.1946,
    "ARG_OF_PERICENTER": 60.4196,
    "MEAN_ANOMALY": 15.3132,
    "EPHEMERIS_TYPE": 0,
    "CLASSIFICATION_TYPE": "U",
    "NORAD_CAT_ID": 65522,
    "ELEMENT_SET_NO": 999,
    "REV_AT_EPOCH": 588,
    "BSTAR": 0.0,
    "MEAN_MOTION_DOT": -0.00042654,
    "MEAN_MOTION_DDOT": 0.0,
    "TLE_LINE1": "1 65522U 25200C   25315.33336806 -.00042654  00000+0 -29030-2 0  9995",
    "TLE_LINE2": "2 65522  97.6032  23.1946 0001480  60.4196  15.3132 15.06492903  5888",
    "COMMENT": "Grouped by shell and plane from TLE"
  },
  {
    "OBJECT_NAME": "STARLINK-35078",
    "OBJECT_ID": "25200D",
    "EPOCH": "2025-11-11T08:00:03.000384",
    "MEAN_MOTION": 15.0650972,
    "ECCENTRICITY": 0.0002015,
    "INCLINATION": 97.6033,
    "RA_OF_ASC_NODE": 23.0951,
    "ARG_OF_PERICENTER": 67.6404,
    "MEAN_ANOMALY": 141.3464,
    "EPHEMERIS_TYPE": 0,
    "CLASSIFICATION_TYPE": "U",
    "NORAD_CAT_ID": 65523,
    "ELEMENT_SET_NO": 999,
    "REV_AT_EPOCH": 580,
    "BSTAR": 0.0,
    "MEAN_MOTION_DOT": -0.00056481,
    "MEAN_MOTION_DDOT": 0.0,
    "TLE_LINE1": "1 65523U 25200D   25315.33336806 -.00056481  00000+0 -38511-2 0  9993",
    "TLE_LINE2": "2 65523  97.6033  23.0951 0002015  67.6404 141.3464 15.06509720  5807",
    "COMMENT": "Grouped by shell and plane from TLE"
  },
  {
    "OBJECT_NAME": "STARLINK-35055",
    "OBJECT_ID": "25200E",
    "EPOCH": "2025-11-11T08:00:03.000384",
    "MEAN_MOTION": 15.06495878,
    "ECCENTRICITY": 0.0001709,
    "INCLINATION": 97.6036,
    "RA_OF_ASC_NODE": 23.1304,
    "ARG_OF_PERICENTER": 74.4189,
    "MEAN_ANOMALY": 215.0059,
    "EPHEMERIS_TYPE": 0,
    "CLASSIFICATION_TYPE": "U",
    "NORAD_CAT_ID": 65524,
    "ELEMENT_SET_NO": 999,
    "REV_AT_EPOCH": 575,
    "BSTAR": 0.0,
    "MEAN_MOTION_DOT": -0.00055189,
    "MEAN_MOTION_DDOT": 0.0,
    "TLE_LINE1": "1 65524U 25200E   25315.33336806 -.00055189  00000+0 -37636-2 0  9995",
    "TLE_LINE2": "2 65524  97.6036  23.1304 0001709  74.4189 215.0059 15.06495878  5750",
    "COMMENT": "Grouped by shell and plane from TLE"
  },
  {
    "OBJECT_NAME": "STARLINK-35057",
    "OBJECT_ID": "25200F",
    "EPOCH": "2025-11-11T08:00:03.000384",
    "MEAN_MOTION": 15.05652624,
    "ECCENTRICITY": 0.0001836,
    "INCLINATION": 97.6106,
    "RA_OF_ASC_NODE": 23.0572,
    "ARG_OF_PERICENTER": 81.591,
    "MEAN_ANOMALY": 35.1122,
    "EPHEMERIS_TYPE": 0,
    "CLASSIFICATION_TYPE": "U",
    "NORAD_CAT_ID": 65525,
    "ELEMENT_SET_NO": 999,
    "REV_AT_EPOCH": 584,
    "BSTAR": 0.0,
    "MEAN_MOTION_DOT": -0.00095674,
    "MEAN_MOTION_DDOT": 0.0,
    "TLE_LINE1": "1 65525U 25200F   25315.33336806 -.00095674  00000+0 -67151-2 0  9994",
    "TLE_LINE2": "2 65525  97.6106  23.0572 0001836  81.5910  35.1122 15.05652624  5842",
    "COMMENT": "Grouped by shell and plane from TLE"
  },
  {
    "OBJECT_NAME": "STARLINK-34674",
    "OBJECT_ID": "25200G",
    "EPOCH": "2025-11-11T08:00:03.000384",
    "MEAN_MOTION": 15.06488305,
    "ECCENTRICITY": 0.0001893,
    "INCLINATION": 97.6032,
    "RA_OF_ASC_NODE": 23.1782,
    "ARG_OF_PERICENTER": 78.023,
    "MEAN_ANOMALY": 318.1723,
    "EPHEMERIS_TYPE": 0,
    "CLASSIFICATION_TYPE": "U",
    "NORAD_CAT_ID": 65526,
    "ELEMENT_SET_NO": 999,
    "REV_AT_EPOCH": 587,
    "BSTAR": 0.0,
    "MEAN_MOTION_DOT": -0.0004197,
    "MEAN_MOTION_DDOT": 0.0,
    "TLE_LINE1": "1 65526U 25200G   25315.33336806 -.00041970  00000+0 -28564-2 0  9990",
    "TLE_LINE2": "2 65526  97.6032  23.1782 0001893  78.0230 318.1723 15.06488305  5872",
    "COMMENT": "Grouped by shell and plane from TLE"
  },
  {
    "OBJECT_NAME": "STARLINK-35067",
    "OBJECT_ID": "25200H",
    "EPOCH": "2025-11-11T08:00:03.000384",
    "MEAN_MOTION": 15.06493271,
    "ECCENTRICITY": 0.0001613,
    "INCLINATION": 97.6032,
    "RA_OF_ASC_NODE": 23.0839,
    "ARG_OF_PERICENTER": 80.8078,
    "MEAN_ANOMALY": 102.1612,
    "EPHEMERIS_TYPE": 0,
    "CLASSIFICATION_TYPE": "U",
    "NORAD_CAT_ID": 65527,
    "ELEMENT_SET_NO": 999,
    "REV_AT_EPOCH": 591,
    "BSTAR": 0.0,
    "MEAN_MOTION_DOT": -0.00056743,
    "MEAN_MOTION_DDOT": 0.0,
    "TLE_LINE1": "1 65527U 25200H   25315.33336806 -.00056743  00000+0 -38709-2 0  9997",
    "TLE_LINE2": "2 65527  97.6032  23.0839 0001613  80.8078 102.1612 15.06493271  5917",
    "COMMENT": "Grouped by shell and plane from TLE"
  },
  {
    "OBJECT_NAME": "STARLINK-35063",
    "OBJECT_ID": "25200J",
    "EPOCH": "2025-11-11T08:00:03.000384",
    "MEAN_MOTION": 15.06487177,
    "ECCENTRICITY": 0.0001941,
    "INCLINATION": 97.6032,
    "RA_OF_ASC_NODE": 23.2016,
    "ARG_OF_PERICENTER": 77.3228,
    "MEAN_ANOMALY": 14.0652,
    "EPHEMERIS_TYPE": 0,
    "CLASSIFICATION_TYPE": "U",
    "NORAD_CAT_ID": 65528,
    "ELEMENT_SET_NO": 999,
    "REV_AT_EPOCH": 583,
    "BSTAR": 0.0,
    "MEAN_MOTION_DOT": -0.00053861,
    "MEAN_MOTION_DDOT": 0.0,
    "TLE_LINE1": "1 65528U 25200J   25315.33336806 -.00053861  00000+0 -36731-2 0  9999",
    "TLE_LINE2": "2 65528  97.6032  23.2016 0001941  77.3228  14.0652 15.06487177  5833",
    "COMMENT": "Grouped by shell and plane from TLE"
  },
  {
    "OBJECT_NAME": "STARLINK-35077",
    "OBJECT_ID": "25200K",
    "EPOCH": "2025-11-11T08:00:03.000384",
    "MEAN_MOTION": 15.06488342,
    "ECCENTRICITY": 0.000157,
    "INCLINATION": 97.6033,
    "RA_OF_ASC_NODE": 23.0971,
    "ARG_OF_PERICENTER": 87.1977,
    "MEAN_ANOMALY": 125.9806,
    "EPHEMERIS_TYPE": 0,
    "CLASSIFICATION_TYPE": "U",
    "NORAD_CAT_ID": 65529,
    "ELEMENT_SET_NO": 999,
    "REV_AT_EPOCH": 585,
    "BSTAR": 0.0,
    "MEAN_MOTION_DOT": -0.00057361,
    "MEAN_MOTION_DDOT": 0.0,
    "TLE_LINE1": "1 65529U 25200K   25315.33336806 -.00057361  00000+0 -39139-2 0  9994",
    "TLE_LINE2": "2 65529  97.6033  23.0971 0001570  87.1977 125.9806 15.06488342  5851",
    "COMMENT": "Grouped by shell and plane from TLE"
  },
  {
    "OBJECT_NAME": "STARLINK-35152",
    "OBJECT_ID": "25200L",
    "EPOCH": "2025-11-11T08:00:03.000384",
    "MEAN_MOTION": 15.05729647,
    "ECCENTRICITY": 0.0004074,
    "INCLINATION": 97.6033,
    "RA_OF_ASC_NODE": 23.1466,
    "ARG_OF_PERICENTER": 66.5922,
    "MEAN_ANOMALY": 259.7998,
    "EPHEMERIS_TYPE": 0,
    "CLASSIFICATION_TYPE": "U",
    "NORAD_CAT_ID": 65530,
    "ELEMENT_SET_NO": 999,
    "REV_AT_EPOCH": 590,
    "BSTAR": 0.0,
    "MEAN_MOTION_DOT": -0.00051567,
    "MEAN_MOTION_DDOT": 0.0,
    "TLE_LINE1": "1 65530U 25200L   25315.33336806 -.00051567  00000+0 -35871-2 0  9997",
    "TLE_LINE2": "2 65530  97.6033  23.1466 0004074  66.5922 259.7998 15.05729647  5905",
    "COMMENT": "Grouped by shell and plane from TLE"
  }
]